STARLINK-36170          
1 67083U 25298J   26011.84495702 -.00270212  00000+0 -46440-2 0  9994
2 67083  70.0015 165.7547 0005013 308.2481  51.8254 15.51877177  4502
STARLINK-36166          
1 67084U 25298K   26011.91667824 -.02404681  00000+0 -56333-1 0  9991
2 67084  69.9992 165.5769 0003537 282.9800  98.5409 15.45386177  5767
STARLINK-35794          
1 67085U 25298L   26011.83098734  .00051213  00000+0  11654-2 0  9994
2 67085  70.0007 166.1117 0003752 297.9068  62.1734 15.42702514  4494
STARLINK-35841          
1 67086U 25298M   26011.39289774  .00047450  00000+0  78226-3 0  9999
2 67086  70.0000 166.9856 0001612 234.0987 126.0050 15.52059546  4437
STARLINK-35842          
1 67087U 25298N   26011.87456067  .00031662  00000+0  72265-3 0  9999
2 67087  69.9995 166.2731 0003612 272.9783  87.0985 15.42742799  4497
STARLINK-35882          
1 67088U 25298P   26011.91667824  .00081719  00000+0  18559-2 0  9993
2 67088  69.9992 165.5889 0003458 294.7338  78.1538 15.42612959  5824
STARLINK-35763          
1 67089U 25298Q   26011.81674539  .00027262  00000+0  62321-3 0  9994
2 67089  69.9996 166.0599 0003925 274.2069  85.8664 15.42734240  4491
STARLINK-36060          
1 67090U 25298R   26011.91667824  .00049266  00000+0  11229-2 0  9994
2 67090  69.9996 165.6870 0003781 277.5087   7.4313 15.42666343  5766
STARLINK-36097          
1 67091U 25298S   26011.91667824  .00058505  00000+0  13317-2 0  9991
2 67091  69.9996 165.7115 0003322 273.7893 349.1474 15.42657565  5821
STARLINK-35792          
1 67092U 25298T   26011.80846262  .00040538  00000+0  92392-3 0  9993
2 67092  70.0002 166.0290 0004500 287.8385  72.2306 15.42716700  4499
STARLINK-35784          
1 67093U 25298U   26011.82485406  .00035481  00000+0  80927-3 0  9997
2 67093  70.0002 166.0882 0003643 292.0054  68.0740 15.42733388  4491
STARLINK-36202          
1 67094U 25298V   26011.82070686  .00012473  00000+0  28755-3 0  9995
2 67094  69.9996 166.0737 0004141 282.4979  77.5739 15.42729487  4491
